{
  "type": "FeatureCollection",
  "features": [
    {
      "type": "Feature",
      "properties": {
        "norad_id": 66605,
        "name": "STARLINK-36052",
        "group": "last-30-days",
        "lat": -22.959773018483553,
        "lon": 162.6974756609988,
        "alt_km": 416.78903185556464,
        "timestamp": "2025-12-13T05:42:56.156047+00:00",
        "meta_object_name": "STARLINK-36052",
        "meta_object_id": "2025-270T",
        "meta_epoch": "2025-12-12T06:00:00.999648",
        "meta_mean_motion": 15.50630958,
        "meta_eccentricity": 0.00019017,
        "meta_inclination": 42.9999,
        "meta_ra_of_asc_node": 195.5195,
        "meta_arg_of_pericenter": 271.923,
        "meta_mean_anomaly": 290.9397,
        "meta_ephemeris_type": 0,
        "meta_classification_type": "U",
        "meta_norad_cat_id": 66605,
        "meta_element_set_no": 999,
        "meta_rev_at_epoch": 432,
        "meta_bstar": -0.001824379,
        "meta_mean_motion_dot": -0.00106132,
        "meta_mean_motion_ddot": 0,
        "tle_line1": "1 66605U 25270T   25346.25001157 -.00106132  00000+0 -18244-2 0  9995",
        "tle_line2": "2 66605  42.9999 195.5195 0001901 271.9230 290.9397 15.50630958  4327"
      },
      "geometry": {
        "type": "Point",
        "coordinates": [
          162.6974756609988,
          -22.959773018483553
        ]
      }
    },
    {
      "type": "Feature",
      "properties": {
        "norad_id": 66606,
        "name": "STARLINK-36063",
        "group": "last-30-days",
        "lat": -20.542398826013173,
        "lon": 166.0166402680357,
        "alt_km": 416.5781385635528,
        "timestamp": "2025-12-13T05:42:56.156058+00:00",
        "meta_object_name": "STARLINK-36063",
        "meta_object_id": "2025-270U",
        "meta_epoch": "2025-12-12T06:00:00.999648",
        "meta_mean_motion": 15.50579029,
        "meta_eccentricity": 0.00016383,
        "meta_inclination": 42.9999,
        "meta_ra_of_asc_node": 195.5094,
        "meta_arg_of_pericenter": 266.5599,
        "meta_mean_anomaly": 300.1453,
        "meta_ephemeris_type": 0,
        "meta_classification_type": "U",
        "meta_norad_cat_id": 66606,
        "meta_element_set_no": 999,
        "meta_rev_at_epoch": 432,
        "meta_bstar": -0.0005116005,
        "meta_mean_motion_dot": -0.00030239,
        "meta_mean_motion_ddot": 0,
        "tle_line1": "1 66606U 25270U   25346.25001157 -.00030239  00000+0 -51160-3 0  9995",
        "tle_line2": "2 66606  42.9999 195.5094 0001638 266.5599 300.1453 15.50579029  4329"
      },
      "geometry": {
        "type": "Point",
        "coordinates": [
          166.0166402680357,
          -20.542398826013173
        ]
      }
    },
    {
      "type": "Feature",
      "properties": {
        "norad_id": 66607,
        "name": "STARLINK-35993",
        "group": "last-30-days",
        "lat": -21.79762003693955,
        "lon": 164.31914819497192,
        "alt_km": 416.77617303330044,
        "timestamp": "2025-12-13T05:42:56.156069+00:00",
        "meta_object_name": "STARLINK-35993",
        "meta_object_id": "2025-270V",
        "meta_epoch": "2025-12-12T06:00:00.999648",
        "meta_mean_motion": 15.50632506,
        "meta_eccentricity": 0.00018144,
        "meta_inclination": 42.9999,
        "meta_ra_of_asc_node": 195.515,
        "meta_arg_of_pericenter": 273.4002,
        "meta_mean_anomaly": 291.3839,
        "meta_ephemeris_type": 0,
        "meta_classification_type": "U",
        "meta_norad_cat_id": 66607,
        "meta_element_set_no": 999,
        "meta_rev_at_epoch": 422,
        "meta_bstar": -0.0019429352,
        "meta_mean_motion_dot": -0.00112915,
        "meta_mean_motion_ddot": 0,
        "tle_line1": "1 66607U 25270V   25346.25001157 -.00112915  00000+0 -19429-2 0  9999",
        "tle_line2": "2 66607  42.9999 195.5150 0001814 273.4002 291.3839 15.50632506  4223"
      },
      "geometry": {
        "type": "Point",
        "coordinates": [
          164.31914819497192,
          -21.79762003693955
        ]
      }
    },
    {
      "type": "Feature",
      "properties": {
        "norad_id": 66608,
        "name": "STARLINK-36036",
        "group": "last-30-days",
        "lat": -19.19173252270205,
        "lon": 167.7901230426395,
        "alt_km": 415.94056768323753,
        "timestamp": "2025-12-13T05:42:56.156080+00:00",
        "meta_object_name": "STARLINK-36036",
        "meta_object_id": "2025-270W",
        "meta_epoch": "2025-12-12T06:00:00.999648",
        "meta_mean_motion": 15.50513108,
        "meta_eccentricity": 0.00017603,
        "meta_inclination": 42.9997,
        "meta_ra_of_asc_node": 195.5055,
        "meta_arg_of_pericenter": 265.7481,
        "meta_mean_anomaly": 302.8923,
        "meta_ephemeris_type": 0,
        "meta_classification_type": "U",
        "meta_norad_cat_id": 66608,
        "meta_element_set_no": 999,
        "meta_rev_at_epoch": 416,
        "meta_bstar": 0.0016644121,
        "meta_mean_motion_dot": 0.00098306,
        "meta_mean_motion_ddot": 0,
        "tle_line1": "1 66608U 25270W   25346.25001157  .00098306  00000+0  16644-2 0  9991",
        "tle_line2": "2 66608  42.9997 195.5055 0001760 265.7481 302.8923 15.50513108  4162"
      },
      "geometry": {
        "type": "Point",
        "coordinates": [
          167.7901230426395,
          -19.19173252270205
        ]
      }
    },
    {
      "type": "Feature",
      "properties": {
        "norad_id": 66609,
        "name": "STARLINK-36034",
        "group": "last-30-days",
        "lat": -18.16135321440587,
        "lon": 169.1086258272833,
        "alt_km": 416.46557469221443,
        "timestamp": "2025-12-13T05:42:56.156092+00:00",
        "meta_object_name": "STARLINK-36034",
        "meta_object_id": "2025-270X",
        "meta_epoch": "2025-12-12T06:00:00.999648",
        "meta_mean_motion": 15.50619482,
        "meta_eccentricity": 0.00019067,
        "meta_inclination": 42.9998,
        "meta_ra_of_asc_node": 195.501,
        "meta_arg_of_pericenter": 270.2473,
        "meta_mean_anomaly": 300.2833,
        "meta_ephemeris_type": 0,
        "meta_classification_type": "U",
        "meta_norad_cat_id": 66609,
        "meta_element_set_no": 999,
        "meta_rev_at_epoch": 416,
        "meta_bstar": -0.0014729138,
        "meta_mean_motion_dot": -0.00085936,
        "meta_mean_motion_ddot": 0,
        "tle_line1": "1 66609U 25270X   25346.25001157 -.00085936  00000+0 -14729-2 0  9991",
        "tle_line2": "2 66609  42.9998 195.5010 0001906 270.2473 300.2833 15.50619482  4163"
      },
      "geometry": {
        "type": "Point",
        "coordinates": [
          169.1086258272833,
          -18.16135321440587
        ]
      }
    },
    {
      "type": "Feature",
      "properties": {
        "norad_id": 66610,
        "name": "STARLINK-35680",
        "group": "last-30-days",
        "lat": -16.94103174232473,
        "lon": 170.6352016304759,
        "alt_km": 416.34106240578603,
        "timestamp": "2025-12-13T05:42:56.156105+00:00",
        "meta_object_name": "STARLINK-35680",
        "meta_object_id": "2025-270Y",
        "meta_epoch": "2025-12-12T06:00:00.999648",
        "meta_mean_motion": 15.5062224,
        "meta_eccentricity": 0.00018968,
        "meta_inclination": 42.9999,
        "meta_ra_of_asc_node": 195.4958,
        "meta_arg_of_pericenter": 274.6075,
        "meta_mean_anomaly": 297.8426,
        "meta_ephemeris_type": 0,
        "meta_classification_type": "U",
        "meta_norad_cat_id": 66610,
        "meta_element_set_no": 999,
        "meta_rev_at_epoch": 443,
        "meta_bstar": -0.0015911773,
        "meta_mean_motion_dot": -0.00092738,
        "meta_mean_motion_ddot": 0,
        "tle_line1": "1 66610U 25270Y   25346.25001157 -.00092738  00000+0 -15912-2 0  9996",
        "tle_line2": "2 66610  42.9999 195.4958 0001896 274.6075 297.8426 15.50622240  4435"
      },
      "geometry": {
        "type": "Point",
        "coordinates": [
          170.6352016304759,
          -16.94103174232473
        ]
      }
    },
    {
      "type": "Feature",
      "properties": {
        "norad_id": 66611,
        "name": "STARLINK-35583",
        "group": "last-30-days",
        "lat": -15.720052043148273,
        "lon": 172.12901122546575,
        "alt_km": 416.39232215829725,
        "timestamp": "2025-12-13T05:42:56.156118+00:00",
        "meta_object_name": "STARLINK-35583",
        "meta_object_id": "2025-270Z",
        "meta_epoch": "2025-12-12T06:00:00.999648",
        "meta_mean_motion": 15.5063436,
        "meta_eccentricity": 0.0001913,
        "meta_inclination": 42.9999,
        "meta_ra_of_asc_node": 195.4906,
        "meta_arg_of_pericenter": 271.7277,
        "meta_mean_anomaly": 302.6397,
        "meta_ephemeris_type": 0,
        "meta_classification_type": "U",
        "meta_norad_cat_id": 66611,
        "meta_element_set_no": 999,
        "meta_rev_at_epoch": 443,
        "meta_bstar": -0.0019497853,
        "meta_mean_motion_dot": -0.00113315,
        "meta_mean_motion_ddot": 0,
        "tle_line1": "1 66611U 25270Z   25346.25001157 -.00113315  00000+0 -19498-2 0  9995",
        "tle_line2": "2 66611  42.9999 195.4906 0001913 271.7277 302.6397 15.50634360  4439"
      },
      "geometry": {
        "type": "Point",
        "coordinates": [
          172.12901122546575,
          -15.720052043148273
        ]
      }
    }
  ]
}